GLOBALSTAR M045 [-]     
1 25676U 99019A   24107.27242295 -.00000068  00000+0  22341-3 0  9990
2 25676  51.9965  82.0356 0000659  86.8167  21.9704 12.27034776140987
GLOBALSTAR M019 [-]     
1 25677U 99019B   24107.46934426 -.00000175  00000+0 -89089-3 0  9998
2 25677  51.9862 181.8227 0001460 168.1324 204.9677 12.13854698133329
GLOBALSTAR M044 [-]     
1 25678U 99019C   24107.67850706 -.00000053  00000+0  42729-3 0  9994
2 25678  51.9963  79.2397 0006178 299.4526 231.7269 11.90230811120536
GLOBALSTAR M042 [-]     
1 25679U 99019D   24107.43506874 -.00000078  00000+0  13617-3 0  9994
2 25679  51.9997 175.6624 0003379 139.5335 233.8228 12.22059701133085
GLOBALSTAR M025 [-]     
1 25770U 99031A   24107.62714024 -.00000054  00000+0  42375-3 0  9996
2 25770  51.9821  67.4176 0001322 146.8946  23.7582 11.22550099433805
GLOBALSTAR M049 [-]     
1 25771U 99031B   24107.58874462 -.00000115  00000+0 -17361-2 0  9990
2 25771  51.9864  80.8315 0003012  18.6686 341.4221 11.12103773 69966
GLOBALSTAR M047 [-]     
1 25772U 99031C   24107.35708981 -.00000055  00000+0  41083-3 0  9999
2 25772  51.9800 119.1069 0016504 249.8555 110.0475 11.31920064422776
GLOBALSTAR M052 [-]     
1 25773U 99031D   24107.52996375 -.00000024  00000+0  14219-2 0  9991
2 25773  51.9852 195.6449 0003116 181.6023 282.4164 11.15050249430918
